GLOBALSTAR M001         
1 25162U 98008A   25225.74281223 -.00000066  00000+0  23471-3 0  9998
2 25162  52.0020 165.7026 0001862  18.7058   9.2967 12.38215439250840
GLOBALSTAR M004         
1 25163U 98008B   25225.97441027 -.00000094  00000+0  53321-4 0  9993
2 25163  51.9978 237.8581 0003198  61.0018 312.1461 12.63399996268998
GLOBALSTAR M002         
1 25164U 98008C   25225.90975188 -.00000064  00000+0  24001-3 0  9996
2 25164  52.0013  95.4749 0000666 272.6854  87.3890 11.61511488190776
GLOBALSTAR M003         
1 25165U 98008D   25225.66930841 -.00000173  00000+0 -88796-3 0  9990
2 25165  51.9997   9.3221 0008661  51.7407 321.0282 12.12066756240193
GLOBALSTAR M014         
1 25306U 98023A   25225.74563537 -.00000086  00000+0 -15703-3 0  9998
2 25306  51.9864  17.8993 0001764  98.6706 274.7262 11.65481514197881
GLOBALSTAR M006         
1 25307U 98023B   25225.87667612 -.00000096  00000+0 -40772-3 0  9997
2 25307  51.9942  72.1969 0002521 198.0345 262.6098 11.58175200223519
GLOBALSTAR M015         
1 25308U 98023C   25225.58684722 -.00000057  00000+0  38395-3 0  9991
2 25308  51.9804 174.0203 0012160 177.5806 353.6256 11.48860627200676
GLOBALSTAR M008         
1 25309U 98023D   25225.65143274 -.00000089  00000+0  51937-4 0  9995
2 25309  51.9984  31.4496 0001920 309.4423 132.2777 12.36071537244959
